start=new Date('2022-01-27T00:00:00.000Z').valueOf();
sats=[{"RCS_SIZE":"LARGE","TLE_LINE1":"1 46074U 20055AZ  22026.37341119 -.00000459  00000-0 -11900-4 0  9999","APOAPSIS":"548.477","SITE":"AFETR","INCLINATION":"53.0561","ARG_OF_PERICENTER":"58.9932","ECCENTRICITY":"0.00018160","TLE_LINE2":"2 46074  53.0561   5.2655 0001816  58.9932 301.1235 15.06398023 82718","NORAD_CAT_ID":"46074","PERIAPSIS":"545.962","SEMIMAJOR_AXIS":"6925.355","EPHEMERIS_TYPE":"0","MEAN_ANOMALY":"301.1235","GP_ID":"194677963","MEAN_ELEMENT_THEORY":"SGP4","DECAY_DATE":null,"REF_FRAME":"TEME","MEAN_MOTION":"15.06398023","FILE":"3284266","TIME_SYSTEM":"UTC","LAUNCH_DATE":"2020-08-07","OBJECT_NAME":"STARLINK-1549","MEAN_MOTION_DDOT":"0.0000000000000","RA_OF_ASC_NODE":"5.2655","CENTER_NAME":"EARTH","BSTAR":"-0.00001190000000","OBJECT_TYPE":"PAYLOAD","REV_AT_EPOCH":"8271","PERIOD":"95.592","EPOCH":"2022-01-26T08:57:42.726816","OBJECT_ID":"2020-055AZ","COUNTRY_CODE":"US","MEAN_MOTION_DOT":"-0.00000459","ELEMENT_SET_NO":"999","CLASSIFICATION_TYPE":"U"},{"MEAN_MOTION_DOT":"-0.00000809","COUNTRY_CODE":"US","OBJECT_ID":"2020-055BA","CLASSIFICATION_TYPE":"U","ELEMENT_SET_NO":"999","BSTAR":"-0.00003541900000","OBJECT_TYPE":"PAYLOAD","REV_AT_EPOCH":"8223","PERIOD":"95.593","EPOCH":"2022-01-26T15:57:01.586016","LAUNCH_DATE":"2020-08-07","FILE":"3284395","TIME_SYSTEM":"UTC","MEAN_MOTION":"15.06389876","RA_OF_ASC_NODE":"3.9626","CENTER_NAME":"EARTH","OBJECT_NAME":"STARLINK-1551","MEAN_MOTION_DDOT":"0.0000000000000","MEAN_ELEMENT_THEORY":"SGP4","GP_ID":"194686504","DECAY_DATE":null,"REF_FRAME":"TEME","PERIAPSIS":"546.152","EPHEMERIS_TYPE":"0","SEMIMAJOR_AXIS":"6925.380","MEAN_ANOMALY":"294.2430","NORAD_CAT_ID":"46075","ARG_OF_PERICENTER":"65.8724","APOAPSIS":"548.337","SITE":"AFETR","INCLINATION":"53.0550","ECCENTRICITY":"0.00015780","TLE_LINE2":"2 46075  53.0550   3.9626 0001578  65.8724 294.2430 15.06389876 82233","TLE_LINE1":"1 46075U 20055BA  22026.66460169 -.00000809  00000-0 -35419-4 0  9999","RCS_SIZE":"LARGE"},{"REF_FRAME":"TEME","DECAY_DATE":null,"MEAN_ELEMENT_THEORY":"SGP4","GP_ID":"194678965","RA_OF_ASC_NODE":"5.6394","CENTER_NAME":"EARTH","MEAN_MOTION_DDOT":"0.0000000000000","OBJECT_NAME":"STARLINK-1552","LAUNCH_DATE":"2020-08-07","FILE":"3284266","MEAN_MOTION":"15.06400953","TIME_SYSTEM":"UTC","REV_AT_EPOCH":"8269","PERIOD":"95.592","EPOCH":"2022-01-26T07:00:56.898144","BSTAR":"-0.00002823200000","OBJECT_TYPE":"PAYLOAD","ELEMENT_SET_NO":"999","CLASSIFICATION_TYPE":"U","MEAN_MOTION_DOT":"-0.00000702","COUNTRY_CODE":"US","OBJECT_ID":"2020-055BB","TLE_LINE1":"1 46076U 20055BB  22026.29232521 -.00000702  00000-0 -28232-4 0  9995","RCS_SIZE":"LARGE","ECCENTRICITY":"0.00018190","TLE_LINE2":"2 46076  53.0551   5.6394 0001819  63.1343 296.9832 15.06400953 82697","ARG_OF_PERICENTER":"63.1343","APOAPSIS":"548.470","SITE":"AFETR","INCLINATION":"53.0551","NORAD_CAT_ID":"46076","SEMIMAJOR_AXIS":"6925.346","EPHEMERIS_TYPE":"0","MEAN_ANOMALY":"296.9832","PERIAPSIS":"545.951"},{"PERIAPSIS":"546.050","MEAN_ANOMALY":"296.2651","SEMIMAJOR_AXIS":"6925.345","EPHEMERIS_TYPE":"0","NORAD_CAT_ID":"46077","ARG_OF_PERICENTER":"63.8510","SITE":"AFETR","INCLINATION":"53.0552","APOAPSIS":"548.370","TLE_LINE2":"2 46077  53.0552   3.9179 0001675  63.8510 296.2651 15.06401279 82238","ECCENTRICITY":"0.00016750","TLE_LINE1":"1 46077U 20055BC  22026.67196887  .00000796  00000-0  72336-4 0  9997","RCS_SIZE":"LARGE","MEAN_MOTION_DOT":"0.00000796","COUNTRY_CODE":"US","OBJECT_ID":"2020-055BC","ELEMENT_SET_NO":"999","CLASSIFICATION_TYPE":"U","BSTAR":"0.00007233600000","OBJECT_TYPE":"PAYLOAD","PERIOD":"95.592","EPOCH":"2022-01-26T16:07:38.110368","REV_AT_EPOCH":"8223","LAUNCH_DATE":"2020-08-07","MEAN_MOTION":"15.06401279","FILE":"3284385","TIME_SYSTEM":"UTC","CENTER_NAME":"EARTH","RA_OF_ASC_NODE":"3.9179","MEAN_MOTION_DDOT":"0.0000000000000","OBJECT_NAME":"STARLINK-1559","MEAN_ELEMENT_THEORY":"SGP4","GP_ID":"194685850","REF_FRAME":"TEME","DECAY_DATE":null},{"REF_FRAME":"TEME","DECAY_DATE":null,"GP_ID":"194677464","MEAN_ELEMENT_THEORY":"SGP4","MEAN_MOTION_DDOT":"0.0000000000000","OBJECT_NAME":"STARLINK-1563","RA_OF_ASC_NODE":"5.5245","CENTER_NAME":"EARTH","MEAN_MOTION":"15.06404689","FILE":"3284266","TIME_SYSTEM":"UTC","LAUNCH_DATE":"2020-08-07","REV_AT_EPOCH":"8268","PERIOD":"95.592","EPOCH":"2022-01-26T07:38:05.987040","BSTAR":"-0.00001412000000","OBJECT_TYPE":"PAYLOAD","CLASSIFICATION_TYPE":"U","ELEMENT_SET_NO":"999","OBJECT_ID":"2020-055BD","COUNTRY_CODE":"US","MEAN_MOTION_DOT":"-0.00000492","RCS_SIZE":"LARGE","TLE_LINE1":"1 46078U 20055BD  22026.31812485 -.00000492  00000-0 -14120-4 0  9990","ECCENTRICITY":"0.00017980","TLE_LINE2":"2 46078  53.0564   5.5245 0001798  75.3432 284.7756 15.06404689 82686","APOAPSIS":"548.444","SITE":"AFETR","INCLINATION":"53.0564","ARG_OF_PERICENTER":"75.3432","NORAD_CAT_ID":"46078","SEMIMAJOR_AXIS":"6925.334","EPHEMERIS_TYPE":"0","MEAN_ANOMALY":"284.7756","PERIAPSIS":"545.954"},{"CLASSIFICATION_TYPE":"U","ELEMENT_SET_NO":"999","COUNTRY_CODE":"US","MEAN_MOTION_DOT":"0.00007990","OBJECT_ID":"2020-055BE","EPOCH":"2022-01-26T17:00:41.960736","PERIOD":"95.591","REV_AT_EPOCH":"8224","OBJECT_TYPE":"PAYLOAD","BSTAR":"0.00055446000000","CENTER_NAME":"EARTH","RA_OF_ASC_NODE":"3.7626","OBJECT_NAME":"STARLINK-1566","MEAN_MOTION_DDOT":"0.0000000000000","LAUNCH_DATE":"2020-08-07","FILE":"3284399","MEAN_MOTION":"15.06413486","TIME_SYSTEM":"UTC","DECAY_DATE":null,"REF_FRAME":"TEME","MEAN_ELEMENT_THEORY":"SGP4","GP_ID":"194686068","MEAN_ANOMALY":"293.8207","EPHEMERIS_TYPE":"0","SEMIMAJOR_AXIS":"6925.307","PERIAPSIS":"546.138","NORAD_CAT_ID":"46079","TLE_LINE2":"2 46079  53.0546   3.7626 0001494  66.2938 293.8207 15.06413486 82242","ECCENTRICITY":"0.00014940","ARG_OF_PERICENTER":"66.2938","SITE":"AFETR","INCLINATION":"53.0546","APOAPSIS":"548.207","TLE_LINE1":"1 46079U 20055BE  22026.70881899  .00007990  00000-0  55446-3 0  9992","RCS_SIZE":"LARGE"},{"ELEMENT_SET_NO":"999","CLASSIFICATION_TYPE":"U","MEAN_MOTION_DOT":"0.00003488","COUNTRY_CODE":"US","OBJECT_ID":"2020-055BF","REV_AT_EPOCH":"8267","EPOCH":"2022-01-26T04:53:32.779104","PERIOD":"95.591","BSTAR":"0.00025282000000","OBJECT_TYPE":"PAYLOAD","RA_OF_ASC_NODE":"6.0286","CENTER_NAME":"EARTH","MEAN_MOTION_DDOT":"0.0000000000000","OBJECT_NAME":"STARLINK-1568","LAUNCH_DATE":"2020-08-07","TIME_SYSTEM":"UTC","FILE":"3284266","MEAN_MOTION":"15.06414009","REF_FRAME":"TEME","DECAY_DATE":null,"MEAN_ELEMENT_THEORY":"SGP4","GP_ID":"194678466","SEMIMAJOR_AXIS":"6925.306","EPHEMERIS_TYPE":"0","MEAN_ANOMALY":"298.9832","PERIAPSIS":"546.004","NORAD_CAT_ID":"46080","ECCENTRICITY":"0.00016850","TLE_LINE2":"2 46080  53.0539   6.0286 0001685  61.1326 298.9832 15.06414009 82670","ARG_OF_PERICENTER":"61.1326","APOAPSIS":"548.338","INCLINATION":"53.0539","SITE":"AFETR","TLE_LINE1":"1 46080U 20055BF  22026.20385161  .00003488  00000-0  25282-3 0  9993","RCS_SIZE":"LARGE"},{"LAUNCH_DATE":"2020-08-07","MEAN_MOTION":"15.06392699","FILE":"3284400","TIME_SYSTEM":"UTC","CENTER_NAME":"EARTH","RA_OF_ASC_NODE":"4.0912","OBJECT_NAME":"STARLINK-1571","MEAN_MOTION_DDOT":"0.0000000000000","MEAN_ELEMENT_THEORY":"SGP4","GP_ID":"194686078","DECAY_DATE":null,"REF_FRAME":"TEME","MEAN_MOTION_DOT":"-0.00000719","COUNTRY_CODE":"US","OBJECT_ID":"2020-055BG","ELEMENT_SET_NO":"999","CLASSIFICATION_TYPE":"U","BSTAR":"-0.00002937200000","OBJECT_TYPE":"PAYLOAD","EPOCH":"2022-01-26T15:14:33.213696","PERIOD":"95.593","REV_AT_EPOCH":"8222","ARG_OF_PERICENTER":"66.5463","SITE":"AFETR","INCLINATION":"53.0555","APOAPSIS":"548.338","TLE_LINE2":"2 46081  53.0555   4.0912 0001591  66.5463 293.5693 15.06392699 82227","ECCENTRICITY":"0.00015910","TLE_LINE1":"1 46081U 20055BG  22026.63510664 -.00000719  00000-0 -29372-4 0  9990","RCS_SIZE":"LARGE","PERIAPSIS":"546.134","MEAN_ANOMALY":"293.5693","SEMIMAJOR_AXIS":"6925.371","EPHEMERIS_TYPE":"0","NORAD_CAT_ID":"46081"},{"FILE":"3284401","MEAN_MOTION":"15.06400024","TIME_SYSTEM":"UTC","LAUNCH_DATE":"2020-08-07","OBJECT_NAME":"STARLINK-1578","MEAN_MOTION_DDOT":"0.0000000000000","RA_OF_ASC_NODE":"3.9868","CENTER_NAME":"EARTH","GP_ID":"194686586","MEAN_ELEMENT_THEORY":"SGP4","REF_FRAME":"TEME","DECAY_DATE":null,"OBJECT_ID":"2020-055BH","COUNTRY_CODE":"US","MEAN_MOTION_DOT":"0.00000908","CLASSIFICATION_TYPE":"U","ELEMENT_SET_NO":"999","OBJECT_TYPE":"PAYLOAD","BSTAR":"0.00007984000000","REV_AT_EPOCH":"8223","PERIOD":"95.592","EPOCH":"2022-01-26T15:46:24.254688","APOAPSIS":"548.369","INCLINATION":"53.0549","SITE":"AFETR","ARG_OF_PERICENTER":"66.6467","ECCENTRICITY":"0.00016680","TLE_LINE2":"2 46082  53.0549   3.9868 0001668  66.6467 293.4698 15.06400024 82236","RCS_SIZE":"LARGE","TLE_LINE1":"1 46082U 20055BH  22026.65722517  .00000908  00000-0  79840-4 0  9998","PERIAPSIS":"546.058","SEMIMAJOR_AXIS":"6925.348","EPHEMERIS_TYPE":"0","MEAN_ANOMALY":"293.4698","NORAD_CAT_ID":"46082"},{"OBJECT_ID":"2020-055BJ","MEAN_MOTION_DOT":"-0.00000509","COUNTRY_CODE":"US","CLASSIFICATION_TYPE":"U","ELEMENT_SET_NO":"999","OBJECT_TYPE":"PAYLOAD","BSTAR":"-0.00001525800000","REV_AT_EPOCH":"8271","PERIOD":"95.592","EPOCH":"2022-01-26T08:41:47.152320","MEAN_MOTION":"15.06404963","FILE":"3284266","TIME_SYSTEM":"UTC","LAUNCH_DATE":"2020-08-07","OBJECT_NAME":"STARLINK-1579","MEAN_MOTION_DDOT":"0.0000000000000","RA_OF_ASC_NODE":"5.3115","CENTER_NAME":"EARTH","GP_ID":"194677715","MEAN_ELEMENT_THEORY":"SGP4","DECAY_DATE":null,"REF_FRAME":"TEME","PERIAPSIS":"546.107","SEMIMAJOR_AXIS":"6925.333","EPHEMERIS_TYPE":"0","MEAN_ANOMALY":"288.0174","NORAD_CAT_ID":"46083","APOAPSIS":"548.290","SITE":"AFETR","INCLINATION":"53.0548","ARG_OF_PERICENTER":"72.0987","ECCENTRICITY":"0.00015760","TLE_LINE2":"2 46083  53.0548   5.3115 0001576  72.0987 288.0174 15.06404963 82711","RCS_SIZE":"LARGE","TLE_LINE1":"1 46083U 20055BJ  22026.36235130 -.00000509  00000-0 -15258-4 0  9999"}];
